{"type": "FeatureCollection", "features": [ {"type": "Feature", "properties": {"norad_id": 38552, "name": "METEOSAT-10 (MSG-3)", "group": "weather", "lat": -4.094823369980383, "lon": -11.910221043091576, "alt_km": 35782.23815519547, "timestamp": "2025-12-25T16:53:14.296255+00:00", "meta": {"OBJECT_NAME": "METEOSAT-10 (MSG-3)", "OBJECT_ID": "2012-035B", "EPOCH": "2025-12-25T04:23:21.555168", "MEAN_MOTION": 1.00266615, "ECCENTRICITY": 0.00014693, "INCLINATION": 4.256, "RA_OF_ASC_NODE": 61.6882, "ARG_OF_PERICENTER": 266.4043, "MEAN_ANOMALY": 191.9794, "EPHEMERIS_TYPE": 0, "CLASSIFICATION_TYPE": "U", "NORAD_CAT_ID": 38552, "ELEMENT_SET_NO": 999, "REV_AT_EPOCH": 4911, "BSTAR": 0, "MEAN_MOTION_DOT": 1.4e-07, "MEAN_MOTION_DDOT": 0}, "tle": {"line1": "1 38552U 12035B   25359.18288837  .00000014  00000+0  00000+0 0  9996", "line2": "2 38552   4.2560  61.6882 0001469 266.4043 191.9794  1.00266615 49110"}}, "geometry": {"type": "Point", "coordinates": [-11.910221043091576, -4.094823369980383]}}, {"type": "Feature", "properties": {"norad_id": 38771, "name": "METOP-B", "group": "weather", "lat": 31.841223929525942, "lon": -125.11594928155851, "alt_km": 816.6749233056435, "timestamp": "2025-12-25T16:53:14.296267+00:00", "meta": {"OBJECT_NAME": "METOP-B", "OBJECT_ID": "2012-049A", "EPOCH": "2025-12-25T06:03:31.372416", "MEAN_MOTION": 14.21413002, "ECCENTRICITY": 0.00032731, "INCLINATION": 98.6781, "RA_OF_ASC_NODE": 48.9981, "ARG_OF_PERICENTER": 118.1061, "MEAN_ANOMALY": 242.0447, "EPHEMERIS_TYPE": 0, "CLASSIFICATION_TYPE": "U", "NORAD_CAT_ID": 38771, "ELEMENT_SET_NO": 999, "REV_AT_EPOCH": 68855, "BSTAR": 7.9988924e-05, "MEAN_MOTION_DOT": 1.31e-06, "MEAN_MOTION_DDOT": 0}, "tle": {"line1": "1 38771U 12049A   25359.25244644  .00000131  00000+0  79989-4 0  9997", "line2": "2 38771  98.6781  48.9981 0003273 118.1061 242.0447 14.21413002688552"}}, "geometry": {"type": "Point", "coordinates": [-125.11594928155851, 31.841223929525942]}}, {"type": "Feature", "properties": {"norad_id": 39216, "name": "INSAT-3D", "group": "weather", "lat": 0.8114618341596038, "lon": 117.28268924170447, "alt_km": 35789.906027076206, "timestamp": "2025-12-25T16:53:14.296280+00:00", "meta": {"OBJECT_NAME": "INSAT-3D", "OBJECT_ID": "2013-038B", "EPOCH": "2025-12-25T01:49:38.587584", "MEAN_MOTION": 1.00274291, "ECCENTRICITY": 0.00019062, "INCLINATION": 1.4749, "RA_OF_ASC_NODE": 84.8578, "ARG_OF_PERICENTER": 156.5491, "MEAN_ANOMALY": 9.3857, "EPHEMERIS_TYPE": 0, "CLASSIFICATION_TYPE": "U", "NORAD_CAT_ID": 39216, "ELEMENT_SET_NO": 999, "REV_AT_EPOCH": 4533, "BSTAR": 0, "MEAN_MOTION_DOT": -3.18e-06, "MEAN_MOTION_DDOT": 0}, "tle": {"line1": "1 39216U 13038B   25359.07614106 -.00000318  00000+0  00000+0 0  9996", "line2": "2 39216   1.4749  84.8578 0001906 156.5491   9.3857  1.00274291 45338"}}, "geometry": {"type": "Point", "coordinates": [117.28268924170447, 0.8114618341596038]}}, {"type": "Feature", "properties": {"norad_id": 39260, "name": "FENGYUN 3C", "group": "weather", "lat": 51.06221289772101, "lon": 167.38847966235267, "alt_km": 825.8706746031557, "timestamp": "2025-12-25T16:53:14.296291+00:00", "meta": {"OBJECT_NAME": "FENGYUN 3C", "OBJECT_ID": "2013-052A", "EPOCH": "2025-12-25T06:06:24.655392", "MEAN_MOTION": 14.15700015, "ECCENTRICITY": 0.00149826, "INCLINATION": 98.4779, "RA_OF_ASC_NODE": 336.3236, "ARG_OF_PERICENTER": 159.966, "MEAN_ANOMALY": 200.2106, "EPHEMERIS_TYPE": 0, "CLASSIFICATION_TYPE": "U", "NORAD_CAT_ID": 39260, "ELEMENT_SET_NO": 999, "REV_AT_EPOCH": 63395, "BSTAR": 8.1406799e-05, "MEAN_MOTION_DOT": 1.19e-06, "MEAN_MOTION_DDOT": 0}, "tle": {"line1": "1 39260U 13052A   25359.25445203  .00000119  00000+0  81407-4 0  9994", "line2": "2 39260  98.4779 336.3236 0014982 159.9660 200.2106 14.15700015633953"}}, "geometry": {"type": "Point", "coordinates": [167.38847966235267, 51.06221289772101]}}, {"type": "Feature", "properties": {"norad_id": 40069, "name": "METEOR-M 2", "group": "weather", "lat": 14.460649423526927, "lon": -25.416185245058493, "alt_km": 825.1779402478596, "timestamp": "2025-12-25T16:53:14.296302+00:00", "meta": {"OBJECT_NAME": "METEOR-M 2", "OBJECT_ID": "2014-037A", "EPOCH": "2025-12-25T06:40:55.056864", "MEAN_MOTION": 14.21392493, "ECCENTRICITY": 0.0005629, "INCLINATION": 98.4919, "RA_OF_ASC_NODE": 336.3829, "ARG_OF_PERICENTER": 170.7958, "MEAN_ANOMALY": 189.3324, "EPHEMERIS_TYPE": 0, "CLASSIFICATION_TYPE": "U", "NORAD_CAT_ID": 40069, "ELEMENT_SET_NO": 999, "REV_AT_EPOCH": 59461, "BSTAR": 0.00028012947, "MEAN_MOTION_DOT": 5.7e-06, "MEAN_MOTION_DDOT": 0}, "tle": {"line1": "1 40069U 14037A   25359.27841501  .00000570  00000+0  28013-3 0  9994", "line2": "2 40069  98.4919 336.3829 0005629 170.7958 189.3324 14.21392493594617"}}, "geometry": {"type": "Point", "coordinates": [-25.416185245058493, 14.460649423526927]}}, {"type": "Feature", "properties": {"norad_id": 40267, "name": "HIMAWARI-8", "group": "weather", "lat": -0.019457412062637337, "lon": 128.42902409473766, "alt_km": 35790.24708800375, "timestamp": "2025-12-25T16:53:14.296314+00:00", "meta": {"OBJECT_NAME": "HIMAWARI-8", "OBJECT_ID": "2014-060A", "EPOCH": "2025-12-25T04:34:38.772192", "MEAN_MOTION": 1.0027122, "ECCENTRICITY": 9.366e-05, "INCLINATION": 0.043, "RA_OF_ASC_NODE": 199.255, "ARG_OF_PERICENTER": 105.813, "MEAN_ANOMALY": 358.216, "EPHEMERIS_TYPE": 0, "CLASSIFICATION_TYPE": "U", "NORAD_CAT_ID": 40267, "ELEMENT_SET_NO": 999, "REV_AT_EPOCH": 4101, "BSTAR": 0, "MEAN_MOTION_DOT": -2.54e-06, "MEAN_MOTION_DDOT": 0}, "tle": {"line1": "1 40267U 14060A   25359.19072653 -.00000254  00000+0  00000+0 0  9997", "line2": "2 40267   0.0430 199.2550 0000936 105.8130 358.2160  1.00271220 41011"}}, "geometry": {"type": "Point", "coordinates": [128.42902409473766, -0.019457412062637337]}}, {"type": "Feature", "properties": {"norad_id": 40367, "name": "FENGYUN 2G", "group": "weather", "lat": 1.1032658746795256, "lon": 86.96691659990546, "alt_km": 35789.659781585025, "timestamp": "2025-12-25T16:53:14.296327+00:00", "meta": {"OBJECT_NAME": "FENGYUN 2G", "OBJECT_ID": "2014-090A", "EPOCH": "2025-12-25T01:33:21.992832", "MEAN_MOTION": 1.00282434, "ECCENTRICITY": 0.00016701, "INCLINATION": 5.1966, "RA_OF_ASC_NODE": 74.9437, "ARG_OF_PERICENTER": 171.6176, "MEAN_ANOMALY": 329.8444, "EPHEMERIS_TYPE": 0, "CLASSIFICATION_TYPE": "U", "NORAD_CAT_ID": 40367, "ELEMENT_SET_NO": 999, "REV_AT_EPOCH": 4025, "BSTAR": 0, "MEAN_MOTION_DOT": -2.82e-06, "MEAN_MOTION_DDOT": 0}, "tle": {"line1": "1 40367U 14090A   25359.06483788 -.00000282  00000+0  00000+0 0  9993", "line2": "2 40367   5.1966  74.9437 0001670 171.6176 329.8444  1.00282434 40255"}}, "geometry": {"type": "Point", "coordinates": [86.96691659990546, 1.1032658746795256]}}, {"type": "Feature", "properties": {"norad_id": 40732, "name": "METEOSAT-11 (MSG-4)", "group": "weather", "lat": -2.681595946093169, "lon": -3.0309664363742606, "alt_km": 35789.03911972179, "timestamp": "2025-12-25T16:53:14.296339+00:00", "meta": {"OBJECT_NAME": "METEOSAT-11 (MSG-4)", "OBJECT_ID": "2015-034A", "EPOCH": "2025-12-24T23:24:56.791584", "MEAN_MOTION": 1.00271323, "ECCENTRICITY": 7.133e-05, "INCLINATION": 2.7671, "RA_OF_ASC_NODE": 71.9685, "ARG_OF_PERICENTER": 137.0347, "MEAN_ANOMALY": 245.1596, "EPHEMERIS_TYPE": 0, "CLASSIFICATION_TYPE": "U", "NORAD_CAT_ID": 40732, "ELEMENT_SET_NO": 999, "REV_AT_EPOCH": 547, "BSTAR": 0, "MEAN_MOTION_DOT": 8.1e-07, "MEAN_MOTION_DDOT": 0}, "tle": {"line1": "1 40732U 15034A   25358.97565731  .00000081  00000+0  00000+0 0  9992", "line2": "2 40732   2.7671  71.9685 0000713 137.0347 245.1596  1.00271323  5470"}}, "geometry": {"type": "Point", "coordinates": [-3.0309664363742606, -2.681595946093169]}}, {"type": "Feature", "properties": {"norad_id": 41105, "name": "ELEKTRO-L 2", "group": "weather", "lat": -6.188244296577731, "lon": -26.72297764884924, "alt_km": 35777.71472355938, "timestamp": "2025-12-25T16:53:14.296351+00:00", "meta": {"OBJECT_NAME": "ELEKTRO-L 2", "OBJECT_ID": "2015-074A", "EPOCH": "2025-12-24T23:18:12.436992", "MEAN_MOTION": 1.0027204, "ECCENTRICITY": 0.000354, "INCLINATION": 6.2545, "RA_OF_ASC_NODE": 72.6824, "ARG_OF_PERICENTER": 208.1447, "MEAN_ANOMALY": 147.994, "EPHEMERIS_TYPE": 0, "CLASSIFICATION_TYPE": "U", "NORAD_CAT_ID": 41105, "ELEMENT_SET_NO": 999, "REV_AT_EPOCH": 3675, "BSTAR": 0, "MEAN_MOTION_DOT": -9.8e-07, "MEAN_MOTION_DDOT": 0}, "tle": {"line1": "1 41105U 15074A   25358.97097728 -.00000098  00000+0  00000+0 0  9996", "line2": "2 41105   6.2545  72.6824 0003540 208.1447 147.9940  1.00272040 36753"}}, "geometry": {"type": "Point", "coordinates": [-26.72297764884924, -6.188244296577731]}}, {"type": "Feature", "properties": {"norad_id": 41752, "name": "INSAT-3DR", "group": "weather", "lat": -0.03548333308953994, "lon": 61.83370674545327, "alt_km": 35838.40954492322, "timestamp": "2025-12-25T16:53:14.296363+00:00", "meta": {"OBJECT_NAME": "INSAT-3DR", "OBJECT_ID": "2016-054A", "EPOCH": "2025-12-24T15:09:51.705216", "MEAN_MOTION": 1.00271379, "ECCENTRICITY": 0.00142635, "INCLINATION": 0.1198, "RA_OF_ASC_NODE": 86.2568, "ARG_OF_PERICENTER": 185.6475, "MEAN_ANOMALY": 122.9543, "EPHEMERIS_TYPE": 0, "CLASSIFICATION_TYPE": "U", "NORAD_CAT_ID": 41752, "ELEMENT_SET_NO": 999, "REV_AT_EPOCH": 3406, "BSTAR": 0, "MEAN_MOTION_DOT": -5.6e-07, "MEAN_MOTION_DDOT": 0}, "tle": {"line1": "1 41752U 16054A   25358.63184844 -.00000056  00000+0  00000+0 0  9996", "line2": "2 41752   0.1198  86.2568 0014263 185.6475 122.9543  1.00271379 34066"}}, "geometry": {"type": "Point", "coordinates": [61.83370674545327, -0.03548333308953994]}}]}